OCEANSAT-2              
1 35931U 09051A   24129.60655045 -.00000154  00000+0 -79607-4 0  9999
2 35931  98.2678 182.2088 0015835 246.5116 113.4386 13.99458811771683
